[
  {
    "OBJECT_NAME": "STARLINK-32360",
    "OBJECT_ID": "24158T",
    "EPOCH": "2025-11-11T06:55:43.017312",
    "MEAN_MOTION": 15.30203175,
    "ECCENTRICITY": 0.0001263,
    "INCLINATION": 53.1578,
    "RA_OF_ASC_NODE": 240.1902,
    "ARG_OF_PERICENTER": 97.3855,
    "MEAN_ANOMALY": 262.7289,
    "EPHEMERIS_TYPE": 0,
    "CLASSIFICATION_TYPE": "U",
    "NORAD_CAT_ID": 61007,
    "ELEMENT_SET_NO": 999,
    "REV_AT_EPOCH": 6766,
    "BSTAR": 0.00013276,
    "MEAN_MOTION_DOT": 3.575e-05,
    "MEAN_MOTION_DDOT": 0.0,
    "TLE_LINE1": "1 61007U 24158T   25315.28869233  .00003575  00000+0  13276-3 0  9992",
    "TLE_LINE2": "2 61007  53.1578 240.1902 0001263  97.3855 262.7289 15.30203175 67660",
    "COMMENT": "Grouped by shell and plane from TLE"
  },
  {
    "OBJECT_NAME": "STARLINK-32416",
    "OBJECT_ID": "24187R",
    "EPOCH": "2025-11-11T04:06:07.922592",
    "MEAN_MOTION": 15.39602156,
    "ECCENTRICITY": 0.0001433,
    "INCLINATION": 53.1619,
    "RA_OF_ASC_NODE": 242.3447,
    "ARG_OF_PERICENTER": 110.1133,
    "MEAN_ANOMALY": 250.0027,
    "EPHEMERIS_TYPE": 0,
    "CLASSIFICATION_TYPE": "U",
    "NORAD_CAT_ID": 61589,
    "ELEMENT_SET_NO": 999,
    "REV_AT_EPOCH": 6112,
    "BSTAR": 0.00022595000000000002,
    "MEAN_MOTION_DOT": 8.643e-05,
    "MEAN_MOTION_DDOT": 0.0,
    "TLE_LINE1": "1 61589U 24187R   25315.17092503  .00008643  00000+0  22595-3 0  9990",
    "TLE_LINE2": "2 61589  53.1619 242.3447 0001433 110.1133 250.0027 15.39602156 61127",
    "COMMENT": "Grouped by shell and plane from TLE"
  },
  {
    "OBJECT_NAME": "STARLINK-32409",
    "OBJECT_ID": "24187T",
    "EPOCH": "2025-11-11T05:26:40.973568",
    "MEAN_MOTION": 15.39637159,
    "ECCENTRICITY": 0.0001134,
    "INCLINATION": 53.1606,
    "RA_OF_ASC_NODE": 241.9824,
    "ARG_OF_PERICENTER": 79.3135,
    "MEAN_ANOMALY": 280.7998,
    "EPHEMERIS_TYPE": 0,
    "CLASSIFICATION_TYPE": "U",
    "NORAD_CAT_ID": 61591,
    "ELEMENT_SET_NO": 999,
    "REV_AT_EPOCH": 6113,
    "BSTAR": 0.0001201,
    "MEAN_MOTION_DOT": 4.41e-05,
    "MEAN_MOTION_DDOT": 0.0,
    "TLE_LINE1": "1 61591U 24187T   25315.22686312  .00004410  00000+0  12010-3 0  9995",
    "TLE_LINE2": "2 61591  53.1606 241.9824 0001134  79.3135 280.7998 15.39637159 61135",
    "COMMENT": "Grouped by shell and plane from TLE"
  },
  {
    "OBJECT_NAME": "STARLINK-32422",
    "OBJECT_ID": "24187U",
    "EPOCH": "2025-11-11T01:32:56.554080",
    "MEAN_MOTION": 15.39621,
    "ECCENTRICITY": 0.0001287,
    "INCLINATION": 53.1617,
    "RA_OF_ASC_NODE": 242.3822,
    "ARG_OF_PERICENTER": 112.1293,
    "MEAN_ANOMALY": 247.9848,
    "EPHEMERIS_TYPE": 0,
    "CLASSIFICATION_TYPE": "U",
    "NORAD_CAT_ID": 61592,
    "ELEMENT_SET_NO": 999,
    "REV_AT_EPOCH": 6111,
    "BSTAR": 3.2329e-05,
    "MEAN_MOTION_DOT": 8.94e-06,
    "MEAN_MOTION_DDOT": 0.0,
    "TLE_LINE1": "1 61592U 24187U   25315.06454345  .00000894  00000+0  32329-4 0  9995",
    "TLE_LINE2": "2 61592  53.1617 242.3822 0001287 112.1293 247.9848 15.39621000 61116",
    "COMMENT": "Grouped by shell and plane from TLE"
  },
  {
    "OBJECT_NAME": "STARLINK-32752",
    "OBJECT_ID": "25006P",
    "EPOCH": "2025-11-11T05:20:15.902592",
    "MEAN_MOTION": 15.27616531,
    "ECCENTRICITY": 0.000175,
    "INCLINATION": 43.0005,
    "RA_OF_ASC_NODE": 241.702,
    "ARG_OF_PERICENTER": 251.1837,
    "MEAN_ANOMALY": 108.8825,
    "EPHEMERIS_TYPE": 0,
    "CLASSIFICATION_TYPE": "U",
    "NORAD_CAT_ID": 62567,
    "ELEMENT_SET_NO": 999,
    "REV_AT_EPOCH": 4674,
    "BSTAR": 0.0011952,
    "MEAN_MOTION_DOT": 0.00032812,
    "MEAN_MOTION_DDOT": 0.0,
    "TLE_LINE1": "1 62567U 25006P   25315.22240628  .00032812  00000+0  11952-2 0  9996",
    "TLE_LINE2": "2 62567  43.0005 241.7020 0001750 251.1837 108.8825 15.27616531 46746",
    "COMMENT": "Grouped by shell and plane from TLE"
  },
  {
    "OBJECT_NAME": "STARLINK-32760",
    "OBJECT_ID": "25006Q",
    "EPOCH": "2025-11-11T03:53:30.143616",
    "MEAN_MOTION": 15.27637481,
    "ECCENTRICITY": 9.54e-05,
    "INCLINATION": 42.9961,
    "RA_OF_ASC_NODE": 242.0958,
    "ARG_OF_PERICENTER": 263.9207,
    "MEAN_ANOMALY": 96.1536,
    "EPHEMERIS_TYPE": 0,
    "CLASSIFICATION_TYPE": "U",
    "NORAD_CAT_ID": 62568,
    "ELEMENT_SET_NO": 999,
    "REV_AT_EPOCH": 4673,
    "BSTAR": 0.0011559,
    "MEAN_MOTION_DOT": 0.00031738,
    "MEAN_MOTION_DDOT": 0.0,
    "TLE_LINE1": "1 62568U 25006Q   25315.16215444  .00031738  00000+0  11559-2 0  9997",
    "TLE_LINE2": "2 62568  42.9961 242.0958 0000954 263.9207  96.1536 15.27637481 46731",
    "COMMENT": "Grouped by shell and plane from TLE"
  },
  {
    "OBJECT_NAME": "STARLINK-32715",
    "OBJECT_ID": "25006R",
    "EPOCH": "2025-11-11T04:06:27.347904",
    "MEAN_MOTION": 15.27636018,
    "ECCENTRICITY": 0.0001603,
    "INCLINATION": 43.001,
    "RA_OF_ASC_NODE": 242.1771,
    "ARG_OF_PERICENTER": 279.9023,
    "MEAN_ANOMALY": 80.1648,
    "EPHEMERIS_TYPE": 0,
    "CLASSIFICATION_TYPE": "U",
    "NORAD_CAT_ID": 62569,
    "ELEMENT_SET_NO": 999,
    "REV_AT_EPOCH": 4673,
    "BSTAR": 0.0015596,
    "MEAN_MOTION_DOT": 0.0004298,
    "MEAN_MOTION_DDOT": 0.0,
    "TLE_LINE1": "1 62569U 25006R   25315.17114986  .00042980  00000+0  15596-2 0  9994",
    "TLE_LINE2": "2 62569  43.0010 242.1771 0001603 279.9023  80.1648 15.27636018 46730",
    "COMMENT": "Grouped by shell and plane from TLE"
  },
  {
    "OBJECT_NAME": "STARLINK-32764",
    "OBJECT_ID": "25006S",
    "EPOCH": "2025-11-11T04:17:33.843552",
    "MEAN_MOTION": 15.27636179,
    "ECCENTRICITY": 6.95e-05,
    "INCLINATION": 43.0015,
    "RA_OF_ASC_NODE": 242.2337,
    "ARG_OF_PERICENTER": 287.9703,
    "MEAN_ANOMALY": 72.1073,
    "EPHEMERIS_TYPE": 0,
    "CLASSIFICATION_TYPE": "U",
    "NORAD_CAT_ID": 62570,
    "ELEMENT_SET_NO": 999,
    "REV_AT_EPOCH": 4673,
    "BSTAR": 0.0015947000000000001,
    "MEAN_MOTION_DOT": 0.00043958,
    "MEAN_MOTION_DDOT": 0.0,
    "TLE_LINE1": "1 62570U 25006S   25315.17886393  .00043958  00000+0  15947-2 0  9990",
    "TLE_LINE2": "2 62570  43.0015 242.2337 0000695 287.9703  72.1073 15.27636179 46731",
    "COMMENT": "Grouped by shell and plane from TLE"
  },
  {
    "OBJECT_NAME": "STARLINK-32773",
    "OBJECT_ID": "25006T",
    "EPOCH": "2025-11-11T03:20:12.441696",
    "MEAN_MOTION": 15.27629518,
    "ECCENTRICITY": 0.0001281,
    "INCLINATION": 43.0016,
    "RA_OF_ASC_NODE": 241.9424,
    "ARG_OF_PERICENTER": 289.1515,
    "MEAN_ANOMALY": 70.9198,
    "EPHEMERIS_TYPE": 0,
    "CLASSIFICATION_TYPE": "U",
    "NORAD_CAT_ID": 62571,
    "ELEMENT_SET_NO": 999,
    "REV_AT_EPOCH": 4673,
    "BSTAR": 0.0014654000000000002,
    "MEAN_MOTION_DOT": 0.00040345,
    "MEAN_MOTION_DDOT": 0.0,
    "TLE_LINE1": "1 62571U 25006T   25315.13903289  .00040345  00000+0  14654-2 0  9992",
    "TLE_LINE2": "2 62571  43.0016 241.9424 0001281 289.1515  70.9198 15.27629518 46736",
    "COMMENT": "Grouped by shell and plane from TLE"
  },
  {
    "OBJECT_NAME": "STARLINK-32750",
    "OBJECT_ID": "25006U",
    "EPOCH": "2025-11-11T04:28:26.783040",
    "MEAN_MOTION": 15.27631283,
    "ECCENTRICITY": 0.0001144,
    "INCLINATION": 43.0001,
    "RA_OF_ASC_NODE": 241.4268,
    "ARG_OF_PERICENTER": 238.7417,
    "MEAN_ANOMALY": 121.3322,
    "EPHEMERIS_TYPE": 0,
    "CLASSIFICATION_TYPE": "U",
    "NORAD_CAT_ID": 62572,
    "ELEMENT_SET_NO": 999,
    "REV_AT_EPOCH": 4674,
    "BSTAR": 0.001842,
    "MEAN_MOTION_DOT": 0.00050856,
    "MEAN_MOTION_DDOT": 0.0,
    "TLE_LINE1": "1 62572U 25006U   25315.18642110  .00050856  00000+0  18420-2 0  9994",
    "TLE_LINE2": "2 62572  43.0001 241.4268 0001144 238.7417 121.3322 15.27631283 46744",
    "COMMENT": "Grouped by shell and plane from TLE"
  },
  {
    "OBJECT_NAME": "STARLINK-32771",
    "OBJECT_ID": "25006V",
    "EPOCH": "2025-11-11T03:09:05.951232",
    "MEAN_MOTION": 15.27627116,
    "ECCENTRICITY": 0.0001437,
    "INCLINATION": 43.004,
    "RA_OF_ASC_NODE": 241.8779,
    "ARG_OF_PERICENTER": 272.5557,
    "MEAN_ANOMALY": 87.513,
    "EPHEMERIS_TYPE": 0,
    "CLASSIFICATION_TYPE": "U",
    "NORAD_CAT_ID": 62573,
    "ELEMENT_SET_NO": 999,
    "REV_AT_EPOCH": 4673,
    "BSTAR": 0.0013192000000000002,
    "MEAN_MOTION_DOT": 0.00036271,
    "MEAN_MOTION_DDOT": 0.0,
    "TLE_LINE1": "1 62573U 25006V   25315.13131888  .00036271  00000+0  13192-2 0  9991",
    "TLE_LINE2": "2 62573  43.0040 241.8779 0001437 272.5557  87.5130 15.27627116 46734",
    "COMMENT": "Grouped by shell and plane from TLE"
  },
  {
    "OBJECT_NAME": "STARLINK-32766",
    "OBJECT_ID": "25006W",
    "EPOCH": "2025-11-11T05:09:09.429408",
    "MEAN_MOTION": 15.27651128,
    "ECCENTRICITY": 0.0001205,
    "INCLINATION": 42.9989,
    "RA_OF_ASC_NODE": 241.6398,
    "ARG_OF_PERICENTER": 278.0096,
    "MEAN_ANOMALY": 82.0618,
    "EPHEMERIS_TYPE": 0,
    "CLASSIFICATION_TYPE": "U",
    "NORAD_CAT_ID": 62574,
    "ELEMENT_SET_NO": 999,
    "REV_AT_EPOCH": 4674,
    "BSTAR": 0.0013433999999999998,
    "MEAN_MOTION_DOT": 0.0003697,
    "MEAN_MOTION_DDOT": 0.0,
    "TLE_LINE1": "1 62574U 25006W   25315.21469247  .00036970  00000+0  13434-2 0  9999",
    "TLE_LINE2": "2 62574  42.9989 241.6398 0001205 278.0096  82.0618 15.27651128 46744",
    "COMMENT": "Grouped by shell and plane from TLE"
  },
  {
    "OBJECT_NAME": "STARLINK-32840",
    "OBJECT_ID": "25063A",
    "EPOCH": "2025-11-11T04:45:49.178304",
    "MEAN_MOTION": 15.3968057,
    "ECCENTRICITY": 0.0001408,
    "INCLINATION": 53.1596,
    "RA_OF_ASC_NODE": 240.3234,
    "ARG_OF_PERICENTER": 85.0085,
    "MEAN_ANOMALY": 275.1081,
    "EPHEMERIS_TYPE": 0,
    "CLASSIFICATION_TYPE": "U",
    "NORAD_CAT_ID": 63363,
    "ELEMENT_SET_NO": 999,
    "REV_AT_EPOCH": 3663,
    "BSTAR": 0.0019858000000000002,
    "MEAN_MOTION_DOT": 0.00080027,
    "MEAN_MOTION_DDOT": 0.0,
    "TLE_LINE1": "1 63363U 25063A   25315.19848586  .00080027  00000+0  19858-2 0  9991",
    "TLE_LINE2": "2 63363  53.1596 240.3234 0001408  85.0085 275.1081 15.39680570 36635",
    "COMMENT": "Grouped by shell and plane from TLE"
  }
]